NORAD_CAT_ID,OBJECT_NAME,OBJECT_TYPE,EPOCH,MEAN_MOTION,ECCENTRICITY,INCLINATION,RA_OF_ASC_NODE,ARG_OF_PERICENTER,MEAN_ANOMALY,BSTAR,MEAN_MOTION_DOT,MEAN_MOTION_DDOT,TLE_LINE0,TLE_LINE1,TLE_LINE2,SEMIMAJOR_AXIS,PERIOD,APOGEE,PERIGEE,DECAYED
55764.0,STARLINK-5499,PAYLOAD,2024-06-23 20:14:23,14.98330581,0.0003029,69.9997,357.5296,266.598,93.4832,2.1297e-05,1.61e-06,0.0,0 STARLINK-5499,1 55764U 23028Z   24175.84332249  .00000161  00000-0  21297-4 0  9999,2 55764  69.9997 357.5296 0003029 266.5980  93.4832 14.98330581 73084,6950.191,96.107,574.161,569.951,0.0
55764.0,STARLINK-5499,PAYLOAD,2024-06-23 21:50:31,14.98331286,0.0003024,69.9997,357.3614,266.4491,93.6322,2.9325e-05,2.57e-06,0.0,0 STARLINK-5499,1 55764U 23028Z   24175.91008181  .00000257  00000-0  29325-4 0  9998,2 55764  69.9997 357.3614 0003024 266.4491  93.6322 14.98331286 73097,6950.189,96.107,574.156,569.952,0.0
55764.0,STARLINK-5499,PAYLOAD,2024-06-24 13:51:51,14.9833071,0.0003063,69.9996,355.678,266.6701,93.4108,5.8647e-05,6.07e-06,0.0,0 STARLINK-5499,1 55764U 23028Z   24176.57768104  .00000607  00000-0  58647-4 0  9997,2 55764  69.9996 355.6780 0003063 266.6701  93.4108 14.98330710 73192,6950.191,96.107,574.185,569.927,0.0
55764.0,STARLINK-5499,PAYLOAD,2024-06-24 20:16:23,14.98336666,0.0002945,70.0002,355.0063,256.0908,103.9924,0.00014051,1.584e-05,0.0,0 STARLINK-5499,1 55764U 23028Z   24176.84471392  .00001584  00000-0  14051-3 0  9992,2 55764  70.0002 355.0063 0002945 256.0908 103.9924 14.98336666 73235,6950.172,96.107,574.084,569.99,0.0
55764.0,STARLINK-5499,PAYLOAD,2024-06-24 21:52:31,14.98334102,0.0002809,70.0011,354.8393,261.0386,99.0455,0.00016118,1.831e-05,0.0,0 STARLINK-5499,1 55764U 23028Z   24176.91147569  .00001831  00000-0  16118-3 0  9997,2 55764  70.0011 354.8393 0002809 261.0386  99.0455 14.98334102 73241,6950.18,96.107,573.998,570.093,0.0
55764.0,STARLINK-5499,PAYLOAD,2024-06-25 12:17:44,14.98333028,0.0002512,70.0012,353.3236,251.9867,108.1018,8.3121e-05,8.99e-06,0.0,0 STARLINK-5499,1 55764U 23028Z   24177.51231697  .00000899  00000-0  83121-4 0  9992,2 55764  70.0012 353.3236 0002512 251.9867 108.1018 14.98333028 73338,6950.184,96.107,573.794,570.303,0.0
55764.0,STARLINK-5499,PAYLOAD,2024-06-25 13:53:52,14.98329915,0.0002817,70.0004,353.1556,257.0345,103.0499,3.5399e-05,3.29e-06,0.0,0 STARLINK-5499,1 55764U 23028Z   24177.57907948  .00000329  00000-0  35399-4 0  9999,2 55764  70.0004 353.1556 0002817 257.0345 103.0499 14.98329915 73346,6950.193,96.107,574.016,570.1,0.0
55764.0,STARLINK-5499,PAYLOAD,2024-06-25 20:18:25,14.98325177,0.0002696,70.0008,352.4826,256.9038,103.182,-2.1168e-05,-3.45e-06,0.0,0 STARLINK-5499,1 55764U 23028Z   24177.84612439 -.00000345  00000-0 -21168-4 0  9996,2 55764  70.0008 352.4826 0002696 256.9038 103.1820 14.98325177 73383,6950.208,96.107,573.947,570.199,0.0
55764.0,STARLINK-5499,PAYLOAD,2024-06-25 21:54:33,14.98324567,0.0002783,70.0008,352.3145,257.1147,102.9701,-1.9176e-05,-3.22e-06,0.0,0 STARLINK-5499,1 55764U 23028Z   24177.91288636 -.00000322  00000-0 -19176-4 0  9993,2 55764  70.0008 352.3145 0002783 257.1147 102.9701 14.98324567 73395,6950.21,96.107,574.009,570.14,0.0
55764.0,STARLINK-5499,PAYLOAD,2024-06-27 12:21:46,14.98327307,0.0002968,70.0002,348.2733,266.9854,93.0966,5.9486e-05,6.17e-06,0.0,0 STARLINK-5499,1 55764U 23028Z   24179.51511917  .00000617  00000-0  59486-4 0  9995,2 55764  70.0002 348.2733 0002968 266.9854  93.0966 14.98327307 73639,6950.201,96.107,574.129,570.003,0.0
55764.0,STARLINK-5499,PAYLOAD,2024-06-27 20:22:26,14.98327363,0.0003074,70.0,347.4307,270.6147,89.466,4.9525e-05,4.98e-06,0.0,0 STARLINK-5499,1 55764U 23028Z   24179.84892001  .00000498  00000-0  49525-4 0  9997,2 55764  70.0000 347.4307 0003074 270.6147  89.4660 14.98327363 73688,6950.201,96.107,574.203,569.93,0.0
55764.0,STARLINK-5499,PAYLOAD,2024-06-28 04:23:06,14.983494,0.0003202,70.0001,346.5885,273.7342,86.345,-0.00026205,-3.22e-05,0.0,0 STARLINK-5499,1 55764U 23028Z   24180.18271192 -.00003220  00000-0 -26205-3 0  9995,2 55764  70.0001 346.5885 0003202 273.7342  86.3450 14.98349400 73739,6950.133,96.106,574.223,569.772,0.0
55764.0,STARLINK-5499,PAYLOAD,2024-06-28 12:23:46,14.9832998,0.0003135,70.0,345.7466,269.3101,90.7699,0.00010951,1.214e-05,0.0,0 STARLINK-5499,1 55764U 23028Z   24180.51651511  .00001214  00000-0  10951-3 0  9999,2 55764  70.0000 345.7466 0003135 269.3101  90.7699 14.98329980 73783,6950.193,96.107,574.237,569.879,0.0
55764.0,STARLINK-5499,PAYLOAD,2024-06-28 13:59:54,14.9832995,0.0003143,70.0,345.5782,269.3666,90.7133,0.00010885,1.206e-05,0.0,0 STARLINK-5499,1 55764U 23028Z   24180.58327521  .00001206  00000-0  10885-3 0  9994,2 55764  70.0000 345.5782 0003143 269.3666  90.7133 14.98329950 73798,6950.193,96.107,574.242,569.874,0.0
55764.0,STARLINK-5499,PAYLOAD,2024-06-28 20:24:26,14.98336923,0.0003054,70.0001,344.9052,269.1434,90.9375,0.00016062,1.824e-05,0.0,0 STARLINK-5499,1 55764U 23028Z   24180.85030971  .00001824  00000-0  16062-3 0  9993,2 55764  70.0001 344.9052 0003054 269.1434  90.9375 14.98336923 73837,6950.171,96.107,574.159,569.914,0.0
55764.0,STARLINK-5499,PAYLOAD,2024-06-29 12:25:48,14.9832524,0.0002806,69.9991,343.2188,273.2432,86.8406,0.00012044,1.344e-05,0.0,0 STARLINK-5499,1 55764U 23028Z   24181.51791941  .00001344  00000-0  12044-3 0  9991,2 55764  69.9991 343.2188 0002806 273.2432  86.8406 14.98325240 73932,6950.208,96.107,574.023,570.122,0.0
55764.0,STARLINK-5499,PAYLOAD,2024-06-29 14:01:56,14.98321697,0.0002982,69.9984,343.0495,272.2616,87.8201,9.7358e-05,1.069e-05,0.0,0 STARLINK-5499,1 55764U 23028Z   24181.58468194  .00001069  00000-0  97358-4 0  9995,2 55764  69.9984 343.0495 0002982 272.2616  87.8201 14.98321697 73948,6950.219,96.108,574.156,570.011,0.0
55764.0,STARLINK-5499,PAYLOAD,2024-06-29 20:26:29,14.98323323,0.000303,70.0,342.3797,270.0028,90.0784,-1.5226e-05,-2.75e-06,0.0,0 STARLINK-5499,1 55764U 23028Z   24181.85172561 -.00000275  00000-0 -15226-4 0  9999,2 55764  70.0000 342.3797 0003030 270.0028  90.0784 14.98323323 73989,6950.214,96.107,574.184,569.973,0.0
55764.0,STARLINK-5499,PAYLOAD,2024-06-30 14:03:57,14.98333262,0.0003034,69.9998,340.5274,269.848,90.2331,6.4392e-05,6.75e-06,0.0,0 STARLINK-5499,1 55764U 23028Z   24182.58607924  .00000675  00000-0  64392-4 0  9996,2 55764  69.9998 340.5274 0003034 269.8480  90.2331 14.98333262 74090,6950.183,96.107,574.156,569.939,0.0
55764.0,STARLINK-5499,PAYLOAD,2024-06-30 20:28:29,14.9834107,0.0003087,70.001,339.8545,269.8434,90.2371,0.00022903,2.642e-05,0.0,0 STARLINK-5499,1 55764U 23028Z   24182.85311539  .00002642  00000-0  22903-3 0  9997,2 55764  70.0010 339.8545 0003087 269.8434  90.2371 14.98341070 74132,6950.159,96.106,574.169,569.878,0.0
55764.0,STARLINK-5499,PAYLOAD,2024-07-01 12:29:50,14.98332392,0.0002984,70.0014,338.1711,270.763,89.3188,0.00027526,3.193e-05,0.0,0 STARLINK-5499,1 55764U 23028Z   24183.52072075  .00003193  00000-0  27526-3 0  9999,2 55764  70.0014 338.1711 0002984 270.7630  89.3188 14.98332392 74230,6950.185,96.107,574.124,569.977,0.0
55764.0,STARLINK-5499,PAYLOAD,2024-07-01 14:05:58,14.98332995,0.000299,70.0014,338.0028,270.7686,89.3131,0.00027513,3.192e-05,0.0,0 STARLINK-5499,1 55764U 23028Z   24183.58748055  .00003192  00000-0  27513-3 0  9998,2 55764  70.0014 338.0028 0002990 270.7686  89.3131 14.98332995 74246,6950.184,96.107,574.127,569.971,0.0
55764.0,STARLINK-5499,PAYLOAD,2024-07-01 20:30:30,14.98337437,0.0003054,70.0014,337.3299,271.3732,88.7077,0.00030839,3.589e-05,0.0,0 STARLINK-5499,1 55764U 23028Z   24183.85451849  .00003589  00000-0  30839-3 0  9995,2 55764  70.0014 337.3299 0003054 271.3732  88.7077 14.98337437 74281,6950.17,96.107,574.157,569.912,0.0
55764.0,STARLINK-5499,PAYLOAD,2024-07-02 12:31:50,14.98338162,0.0003067,70.0013,335.6467,272.5393,87.5414,0.00016959,1.932e-05,0.0,0 STARLINK-5499,1 55764U 23028Z   24184.52211583  .00001932  00000-0  16959-3 0  9996,2 55764  70.0013 335.6467 0003067 272.5393  87.5414 14.98338162 74387,6950.168,96.106,574.164,569.901,0.0
55764.0,STARLINK-5499,PAYLOAD,2024-07-02 14:07:58,14.98338699,0.0003076,70.0013,335.4784,272.5613,87.5194,0.00017951,2.05e-05,0.0,0 STARLINK-5499,1 55764U 23028Z   24184.58887531  .00002050  00000-0  17951-3 0  9999,2 55764  70.0013 335.4784 0003076 272.5613  87.5194 14.98338699 74393,6950.166,96.106,574.169,569.893,0.0
55764.0,STARLINK-5499,PAYLOAD,2024-07-02 20:32:30,14.98347927,0.0003039,70.0019,334.8052,273.2475,86.8336,0.00031108,3.622e-05,0.0,0 STARLINK-5499,1 55764U 23028Z   24184.85590973  .00003622  00000-0  31108-3 0  9996,2 55764  70.0019 334.8052 0003039 273.2475  86.8336 14.98347927 74432,6950.137,96.106,574.115,569.89,0.0
55764.0,STARLINK-5499,PAYLOAD,2024-07-03 12:33:51,14.98338629,0.0003075,70.0023,333.1235,263.5534,96.5275,0.00016462,1.872e-05,0.0,0 STARLINK-5499,1 55764U 23028Z   24185.52350930  .00001872  00000-0  16462-3 0  9999,2 55764  70.0023 333.1235 0003075 263.5534  96.5275 14.98338629 74530,6950.166,96.106,574.168,569.894,0.0
55764.0,STARLINK-5499,PAYLOAD,2024-07-03 20:34:31,14.98336522,0.0003165,70.002,332.2801,269.8011,90.2785,0.00035982,4.204e-05,0.0,0 STARLINK-5499,1 55764U 23028Z   24185.85730951  .00004204  00000-0  35982-3 0  9990,2 55764  70.0020 332.2801 0003165 269.8011  90.2785 14.98336522 74587,6950.173,96.107,574.237,569.838,0.0
55764.0,STARLINK-5499,PAYLOAD,2024-07-04 12:35:52,14.9832937,0.0002615,69.9996,330.5957,272.2505,87.8354,-1.6783e-05,-2.93e-06,0.0,0 STARLINK-5499,1 55764U 23028Z   24186.52491691 -.00000293  00000-0 -16783-4 0  9995,2 55764  69.9996 330.5957 0002615 272.2505  87.8354 14.98329370 74682,6950.195,96.107,573.877,570.242,0.0
55764.0,STARLINK-5499,PAYLOAD,2024-07-04 14:12:01,14.98322329,0.000298,70.001,330.4279,268.9051,91.1766,2.3796e-05,1.91e-06,0.0,0 STARLINK-5499,1 55764U 23028Z   24186.59168001  .00000191  00000-0  23796-4 0  9995,2 55764  70.0010 330.4279 0002980 268.9051  91.1766 14.98322329 74694,6950.217,96.107,574.153,570.01,0.0
